COSMOS 2433 (720)       
1 32275U 07052A   25199.27314216 -.00000064  00000+0  00000+0 0  9994
2 32275  65.7605 327.1544 0003334 207.5554 152.4351  2.13104037137943
COSMOS 2432 (719)       
1 32276U 07052B   25200.07658172 -.00000070  00000+0  00000+0 0  9995
2 32276  65.7757 327.2489 0007695 323.2633 238.0797  2.13103038137988
COSMOS 2434 (721)       
1 32393U 07065A   25202.93396054  .00000092  00000+0  00000+0 0  9997
2 32393  64.3181 203.0549 0000791 319.3429 220.3598  2.13101283136736
COSMOS 2436 (723)       
1 32395U 07065C   25200.69475288  .00000117  00000+0  00000+0 0  9995
2 32395  64.3266 203.1992 0016738 352.7388  42.8509  2.13100086136647
COSMOS 2456 (730)       
1 36111U 09070A   25200.38013384 -.00000032  00000+0  00000+0 0  9991
2 36111  64.8136  82.3421 0003499 336.8615 199.7687  2.13103643121339
COSMOS 2457 (733)       
1 36112U 09070B   25201.67544153 -.00000032  00000+0  00000+0 0  9998
2 36112  64.7995  82.1483 0004171 131.9682  88.8723  2.13101153121360
COSMOS 2460 (732)       
1 36402U 10007C   25202.84966546 -.00000083  00000+0  00000+0 0  9992
2 36402  65.6074 325.6289 0001577 150.2521 248.7201  2.13106175119782
COSMOS 2476 (744)       
1 37867U 11064A   25202.80220875 -.00000026  00000+0  00000+0 0  9993
2 37867  65.0799  84.0411 0021848 235.6131 268.7150  2.13101472106727
COSMOS 2477 (745)       
1 37868U 11064B   25202.64973839 -.00000027  00000+0  00000+0 0  9992
2 37868  65.0864  84.1226 0018967 236.6200 330.9158  2.13102999106716
COSMOS 2475 (743)       
1 37869U 11064C   25202.21375634 -.00000030  00000+0  00000+0 0  9999
2 37869  65.0933  84.1559 0024139 251.8011 297.8659  2.13101829106718
COSMOS 2485 (747)       
1 39155U 13019A   25201.14485184 -.00000033  00000+0  00000+0 0  9997
2 39155  65.2329  84.7631 0022302 231.4450 128.4140  2.13104550 95206
COSMOS 2492 (754)       
1 39620U 14012A   25200.63316542 -.00000074  00000+0  00000+0 0  9997
2 39620  65.4875 325.2224 0010633 318.3767  41.5481  2.13103111 88153
COSMOS 2500 (755)       
1 40001U 14032A   25202.21502902 -.00000081  00000+0  00000+0 0  9995
2 40001  65.4226 324.9426 0008025 192.2179 167.7657  2.13105879 86401
COSMOS 2501 (702K)      
1 40315U 14075A   25201.06503697  .00000113  00000+0  00000+0 0  9999
2 40315  63.6176 201.8687 0021874 212.0361 147.8607  2.13101331 82775
COSMOS 2514 (751)       
1 41330U 16008A   25202.45659890 -.00000082  00000+0  00000+0 0  9992
2 41330  65.2139 324.3425 0011830 202.4287 157.5229  2.13102592 73578
COSMOS 2522 (752)       
1 42939U 17055A   25202.76457988  .00000095  00000+0  00000+0 0  9992
2 42939  64.0795 203.1305 0010665 241.2523 118.6680  2.13101855 60935
COSMOS 2527 (756)       
1 43508U 18053A   25202.25570247 -.00000029  00000+0  00000+0 0  9990
2 43508  65.3916  84.9610 0006809 228.9075 131.0956  2.13102158 55228
COSMOS 2529 (757)       
1 43687U 18086A   25200.00715412  .00000119  00000+0  00000+0 0  9999
2 43687  64.2952 203.8442 0011972 257.9395 101.9598  2.13101945 52186
COSMOS 2534 (758)       
1 44299U 19030A   25202.92018565  .00000093  00000+0  00000+0 0  9998
2 44299  64.3687 203.7366 0013575 276.8371 292.2183  2.13102103 47883
COSMOS 2544 (759)       
1 44850U 19088A   25202.20011929 -.00000029  00000+0  00000+0 0  9992
2 44850  65.3789  84.7922 0012099 255.4383 104.4893  2.13101959 43663
COSMOS 2545 (760)       
1 45358U 20018A   25202.86561765 -.00000083  00000+0  00000+0 0  9991
2 45358  64.5508 324.0125 0009564 232.6304 127.2861  2.13102431 41623
COSMOS 2547 (705K)      
1 46805U 20075A   25202.11365723  .00000105  00000+0  00000+0 0  9990
2 46805  64.5987 203.5240 0009188 240.9629 118.9760  2.13100073 36859
COSMOS 2557 (706K)      
1 52984U 22075A   25202.28016594 -.00000083  00000+0  00000+0 0  9990
2 52984  64.4885 326.1270 0011180 273.2635  86.6109  2.13102103 23665
COSMOS 2559 (707K)      
1 54031U 22130A   25199.28342230 -.00000066  00000+0  00000+0 0  9992
2 54031  64.4626 326.3265 0012644 180.3849 179.6233  2.13101497 21574
COSMOS 2564 (761)       
1 54377U 22161A   25201.94366643  .00000107  00000+0  00000+0 0  9995
2 54377  64.7406 203.7063 0011940 225.3796 134.5549  2.13101980 20575
COSMOS 2569 (703K)      
1 57517U 23114A   25202.42740625 -.00000028  00000+0  00000+0 0  9996
2 57517  65.1116  83.7906 0009858 297.6443  62.3193  2.13103638 15215
COSMOS 2584 (704K)      
1 63130U 25042A   25198.09050221 -.00000017  00000+0  00000+0 0  9997
2 63130  64.8907  84.2105 0005909 217.2075 142.8153  2.13103830  2902
